{
  "links" : {
    "next" : "https://api.nasa.gov/neo/rest/v1/feed?start_date=2009-05-09&end_date=2009-05-09&detailed=true&api_key=t0TVs3DtDT2H8Oy2Zy8m2eVrNsAVKAexjcZXUckd",
    "prev" : "https://api.nasa.gov/neo/rest/v1/feed?start_date=2009-05-07&end_date=2009-05-07&detailed=true&api_key=t0TVs3DtDT2H8Oy2Zy8m2eVrNsAVKAexjcZXUckd",
    "self" : "https://api.nasa.gov/neo/rest/v1/feed?start_date=2009-05-08&end_date=2009-05-08&detailed=true&api_key=t0TVs3DtDT2H8Oy2Zy8m2eVrNsAVKAexjcZXUckd"
  },
  "element_count" : 8,
  "near_earth_objects" : {
    "2009-05-08" : [ {
      "links" : {
        "self" : "https://api.nasa.gov/neo/rest/v1/neo/3752014?api_key=t0TVs3DtDT2H8Oy2Zy8m2eVrNsAVKAexjcZXUckd"
      },
      "neo_reference_id" : "3752014",
      "name" : "(2016 GY221)",
      "nasa_jpl_url" : "http://ssd.jpl.nasa.gov/sbdb.cgi?sstr=3752014",
      "absolute_magnitude_h" : 24.5,
      "estimated_diameter" : {
        "kilometers" : {
          "estimated_diameter_min" : 0.0334622374,
          "estimated_diameter_max" : 0.0748238376
        },
        "meters" : {
          "estimated_diameter_min" : 33.4622374455,
          "estimated_diameter_max" : 74.8238376074
        },
        "miles" : {
          "estimated_diameter_min" : 0.0207924639,
          "estimated_diameter_max" : 0.0464933628
        },
        "feet" : {
          "estimated_diameter_min" : 109.7842471007,
          "estimated_diameter_max" : 245.4850393757
        }
      },
      "is_potentially_hazardous_asteroid" : false,
      "close_approach_data" : [ {
        "close_approach_date" : "2009-05-08",
        "epoch_date_close_approach" : 1241766000000,
        "relative_velocity" : {
          "kilometers_per_second" : "10.9213325608",
          "kilometers_per_hour" : "39316.7972188235",
          "miles_per_hour" : "24429.9288052184"
        },
        "miss_distance" : {
          "astronomical" : "0.2044512259",
          "lunar" : "79.5315322876",
          "kilometers" : "30585470",
          "miles" : "19004930"
        },
        "orbiting_body" : "Earth"
      } ],
      "orbital_data" : {
        "orbit_id" : "10",
        "orbit_determination_date" : "2017-07-04 06:19:26",
        "orbit_uncertainty" : "7",
        "minimum_orbit_intersection" : ".0370423",
        "jupiter_tisserand_invariant" : "4.580",
        "epoch_osculation" : "2458000.5",
        "eccentricity" : ".2826193151744674",
        "semi_major_axis" : "1.446467083706989",
        "inclination" : "13.65596458290274",
        "ascending_node_longitude" : "31.89070331140446",
        "orbital_period" : "635.4205550386463",
        "perihelion_distance" : "1.037667547087311",
        "perihelion_argument" : "169.9097626732237",
        "aphelion_distance" : "1.855266620326667",
        "perihelion_time" : "2458125.317237961418",
        "mean_anomaly" : "289.2843057880342",
        "mean_motion" : ".5665539100763034",
        "equinox" : "J2000"
      }
    }, {
      "links" : {
        "self" : "https://api.nasa.gov/neo/rest/v1/neo/3460325?api_key=t0TVs3DtDT2H8Oy2Zy8m2eVrNsAVKAexjcZXUckd"
      },
      "neo_reference_id" : "3460325",
      "name" : "(2009 KY1)",
      "nasa_jpl_url" : "http://ssd.jpl.nasa.gov/sbdb.cgi?sstr=3460325",
      "absolute_magnitude_h" : 23.7,
      "estimated_diameter" : {
        "kilometers" : {
          "estimated_diameter_min" : 0.0483676488,
          "estimated_diameter_max" : 0.1081533507
        },
        "meters" : {
          "estimated_diameter_min" : 48.3676488219,
          "estimated_diameter_max" : 108.1533506775
        },
        "miles" : {
          "estimated_diameter_min" : 0.0300542543,
          "estimated_diameter_max" : 0.0672033557
        },
        "feet" : {
          "estimated_diameter_min" : 158.6865169607,
          "estimated_diameter_max" : 354.8338390368
        }
      },
      "is_potentially_hazardous_asteroid" : false,
      "close_approach_data" : [ {
        "close_approach_date" : "2009-05-08",
        "epoch_date_close_approach" : 1241766000000,
        "relative_velocity" : {
          "kilometers_per_second" : "6.866674947",
          "kilometers_per_hour" : "24720.0298091653",
          "miles_per_hour" : "15360.0651889228"
        },
        "miss_distance" : {
          "astronomical" : "0.0392828384",
          "lunar" : "15.2810249329",
          "kilometers" : "5876629",
          "miles" : "3651568"
        },
        "orbiting_body" : "Earth"
      } ],
      "orbital_data" : {
        "orbit_id" : "17",
        "orbit_determination_date" : "2017-04-06 09:00:32",
        "orbit_uncertainty" : "6",
        "minimum_orbit_intersection" : ".0388615",
        "jupiter_tisserand_invariant" : "5.445",
        "epoch_osculation" : "2458000.5",
        "eccentricity" : ".1894939658925378",
        "semi_major_axis" : "1.147375257726469",
        "inclination" : "9.368463479719603",
        "ascending_node_longitude" : "236.91575757619",
        "orbital_period" : "448.9072789825821",
        "perihelion_distance" : ".9299545697729077",
        "perihelion_argument" : "281.5018594183563",
        "aphelion_distance" : "1.36479594568003",
        "perihelion_time" : "2458040.967485497463",
        "mean_anomaly" : "327.5472074943749",
        "mean_motion" : ".8019473438165573",
        "equinox" : "J2000"
      }
    } ]
  }
}